CTC2_L_00470094-01
1 83364U 22884XN  26070.40848380  .00000000  00000+0  00000-0 0  9997
2 83364 100.6000 223.2000 0000000   0.0000  86.4000 13.03091871    14
CTC2_L_00470094-02
1 83365U 23468QD  26070.40848380  .00000000  00000+0  00000-0 0  9997
2 83365 100.6000 223.2000 0000000   0.0000 266.4000 13.03091871    15
CTC2_L_00470095-01
1 83366U 25214VG  26070.40848380  .00000000  00000+0  00000-0 0  9999
2 83366 100.6000 225.6000 0000000   0.0000  91.2000 13.03091871    16
CTC2_L_00470095-02
1 83367U 22014YU  26070.40848380  .00000000  00000+0  00000-0 0  9995
2 83367 100.6000 225.6000 0000000   0.0000 271.2000 13.03091871    17
CTC2_L_00470096-01
1 83368U 26979WD  26070.40848380  .00000000  00000+0  00000-0 0  9990
2 83368 100.6000 228.0000 0000000   0.0000  96.0000 13.03091871    18
CTC2_L_00470096-02
1 83369U 23058DN  26070.40848380  .00000000  00000+0  00000-0 0  9996
2 83369 100.6000 228.0000 0000000   0.0000 276.0000 13.03091871    19
CTC2_L_00470097-01
1 83370U 23848KO  26070.40848380  .00000000  00000+0  00000-0 0  9995
2 83370 100.6000 230.4000 0000000   0.0000 100.8000 13.03091871    12
CTC2_L_00470097-02
1 83371U 24509PF  26070.40848380  .00000000  00000+0  00000-0 0  9991
2 83371 100.6000 230.4000 0000000   0.0000 280.8000 13.03091871    12
CTC2_L_00470098-01
1 83372U 25735SK  26070.40848380  .00000000  00000+0  00000-0 0  9994
2 83372 100.6000 232.8000 0000000   0.0000 105.6000 13.03091871    13
CTC2_L_00470098-02
1 83373U 25268BX  26070.40848380  .00000000  00000+0  00000-0 0  9996
2 83373 100.6000 232.8000 0000000   0.0000 285.6000 13.03091871    13
CTC2_L_00470099-01
1 83374U 25530VE  26070.40848380  .00000000  00000+0  00000-0 0  9999
2 83374 100.6000 235.2000 0000000   0.0000 110.4000 13.03091871    16
CTC2_L_00470099-02
1 83375U 25242XP  26070.40848380  .00000000  00000+0  00000-0 0  9990
2 83375 100.6000 235.2000 0000000   0.0000 290.4000 13.03091871    16
CTC2_L_00470100-01
1 83376U 22720WD  26070.40848380  .00000000  00000+0  00000-0 0  9999
2 83376 100.6000 237.6000 0000000   0.0000 115.2000 13.03091871    17
CTC2_L_00470100-02
1 83377U 23004US  26070.40848380  .00000000  00000+0  00000-0 0  9996
2 83377 100.6000 237.6000 0000000   0.0000 295.2000 13.03091871    17
CTC2_L_00470101-01
1 83378U 25169SX  26070.40848380  .00000000  00000+0  00000-0 0  9991
2 83378 100.6000 240.0000 0000000   0.0000 120.0000 13.03091871    11
CTC2_L_00470101-02
1 83379U 25061TW  26070.40848380  .00000000  00000+0  00000-0 0  9993
2 83379 100.6000 240.0000 0000000   0.0000 300.0000 13.03091871    12
CTC2_L_00470102-01
1 83380U 24032VJ  26070.40848380  .00000000  00000+0  00000-0 0  9992
2 83380 100.6000 242.4000 0000000   0.0000 124.8000 13.03091871    12
CTC2_L_00470102-02
1 83381U 25375PO  26070.40848380  .00000000  00000+0  00000-0 0  9994
2 83381 100.6000 242.4000 0000000   0.0000 304.8000 13.03091871    13
CTC2_L_00470103-01
1 83382U 26706YQ  26070.40848380  .00000000  00000+0  00000-0 0  9994
2 83382 100.6000 244.8000 0000000   0.0000 129.6000 13.03091871    13
CTC2_L_00470103-02
1 83383U 24419ZJ  26070.40848380  .00000000  00000+0  00000-0 0  9994
2 83383 100.6000 244.8000 0000000   0.0000 309.6000 13.03091871    14
CTC2_L_00470104-01
1 83384U 22476VE  26070.40848380  .00000000  00000+0  00000-0 0  9996
2 83384 100.6000 247.2000 0000000   0.0000 134.4000 13.03091871    16
CTC2_L_00470104-02
1 83385U 25466XJ  26070.40848380  .00000000  00000+0  00000-0 0  9999
2 83385 100.6000 247.2000 0000000   0.0000 314.4000 13.03091871    17
CTC2_L_00470105-01
1 83386U 26758TT  26070.40848380  .00000000  00000+0  00000-0 0  9995
2 83386 100.6000 249.6000 0000000   0.0000 139.2000 13.03091871    17
CTC2_L_00470105-02
1 83387U 26621DY  26070.40848380  .00000000  00000+0  00000-0 0  9995
2 83387 100.6000 249.6000 0000000   0.0000 319.2000 13.03091871    18
CTC2_L_00470106-01
1 83388U 26171IG  26070.40848380  .00000000  00000+0  00000-0 0  9996
2 83388 100.6000 252.0000 0000000   0.0000 144.0000 13.03091871    11
CTC2_L_00470106-02
1 83389U 26609QR  26070.40848380  .00000000  00000+0  00000-0 0  9993
2 83389 100.6000 252.0000 0000000   0.0000 324.0000 13.03091871    12
CTC2_L_00470107-01
1 83390U 24502JF  26070.40848380  .00000000  00000+0  00000-0 0  9995
2 83390 100.6000 254.4000 0000000   0.0000 148.8000 13.03091871    12
CTC2_L_00470107-02
1 83391U 24647QI  26070.40848380  .00000000  00000+0  00000-0 0  9996
2 83391 100.6000 254.4000 0000000   0.0000 328.8000 13.03091871    13
CTC2_L_00470108-01
1 83392U 26429OF  26070.40848380  .00000000  00000+0  00000-0 0  9997
2 83392 100.6000 256.8000 0000000   0.0000 153.6000 13.03091871    14
CTC2_L_00470108-02
1 83393U 26157DQ  26070.40848380  .00000000  00000+0  00000-0 0  9996
2 83393 100.6000 256.8000 0000000   0.0000 333.6000 13.03091871    15
CTC2_L_00470109-01
1 83394U 25864DX  26070.40848380  .00000000  00000+0  00000-0 0  9991
2 83394 100.6000 259.2000 0000000   0.0000 158.4000 13.03091871    16
CTC2_L_00470109-02
1 83395U 22718SD  26070.40848380  .00000000  00000+0  00000-0 0  9997
2 83395 100.6000 259.2000 0000000   0.0000 338.4000 13.03091871    17
CTC2_L_00470110-01
1 83396U 25133ZF  26070.40848380  .00000000  00000+0  00000-0 0  9992
2 83396 100.6000 261.6000 0000000   0.0000 163.2000 13.03091871    19
CTC2_L_00470110-02
1 83397U 24396QE  26070.40848380  .00000000  00000+0  00000-0 0  9993
2 83397 100.6000 261.6000 0000000   0.0000 343.2000 13.03091871    10
CTC2_L_00470111-01
1 83398U 26679CM  26070.40848380  .00000000  00000+0  00000-0 0  9990
2 83398 100.6000 264.0000 0000000   0.0000 168.0000 13.03091871    11
CTC2_L_00470111-02
1 83399U 25442FA  26070.40848380  .00000000  00000+0  00000-0 0  9998
2 83399 100.6000 264.0000 0000000   0.0000 348.0000 13.03091871    12
CTC2_L_00470112-01
1 83400U 23520JJ  26070.40848380  .00000000  00000+0  00000-0 0  9996
2 83400 100.6000 266.4000 0000000   0.0000 172.8000 13.03091871    14
CTC2_L_00470112-02
1 83401U 25740RN  26070.40848380  .00000000  00000+0  00000-0 0  9993
2 83401 100.6000 266.4000 0000000   0.0000 352.8000 13.03091871    15
CTC2_L_00470113-01
1 83402U 26324RW  26070.40848380  .00000000  00000+0  00000-0 0  9993
2 83402 100.6000 268.8000 0000000   0.0000 177.6000 13.03091871    15
CTC2_L_00470113-02
1 83403U 24947CD  26070.40848380  .00000000  00000+0  00000-0 0  9993
2 83403 100.6000 268.8000 0000000   0.0000 357.6000 13.03091871    16
CTC2_L_00470114-01
1 83404U 24030SC  26070.40848380  .00000000  00000+0  00000-0 0  9997
2 83404 100.6000 271.2000 0000000   0.0000 182.4000 13.03091871    19
CTC2_L_00470114-02
1 83405U 23409AO  26070.40848380  .00000000  00000+0  00000-0 0  9997
2 83405 100.6000 271.2000 0000000   0.0000   2.4000 13.03091871    11
CTC2_L_00470115-01
1 83406U 25122JE  26070.40848380  .00000000  00000+0  00000-0 0  9992
2 83406 100.6000 273.6000 0000000   0.0000 187.2000 13.03091871    10
CTC2_L_00470115-02
1 83407U 22313UC  26070.40848380  .00000000  00000+0  00000-0 0  9992
2 83407 100.6000 273.6000 0000000   0.0000   7.2000 13.03091871    12
CTC2_L_00470116-01
1 83408U 23601VX  26070.40848380  .00000000  00000+0  00000-0 0  9994
2 83408 100.6000 276.0000 0000000   0.0000 192.0000 13.03091871    13
CTC2_L_00470116-02
1 83409U 23654EL  26070.40848380  .00000000  00000+0  00000-0 0  9993
2 83409 100.6000 276.0000 0000000   0.0000  12.0000 13.03091871    15
CTC2_L_00470117-01
1 83410U 22819HK  26070.40848380  .00000000  00000+0  00000-0 0  9997
2 83410 100.6000 278.4000 0000000   0.0000 196.8000 13.03091871    14
CTC2_L_00470117-02
1 83411U 22738LV  26070.40848380  .00000000  00000+0  00000-0 0  9998
2 83411 100.6000 278.4000 0000000   0.0000  16.8000 13.03091871    16
CTC2_L_00470118-01
1 83412U 26668XH  26070.40848380  .00000000  00000+0  00000-0 0  9995
2 83412 100.6000 280.8000 0000000   0.0000 201.6000 13.03091871    18
CTC2_L_00470118-02
1 83413U 23456AM  26070.40848380  .00000000  00000+0  00000-0 0  9998
2 83413 100.6000 280.8000 0000000   0.0000  21.6000 13.03091871    19
CTC2_L_00470119-01
1 83414U 23286BL  26070.40848380  .00000000  00000+0  00000-0 0  9990
2 83414 100.6000 283.2000 0000000   0.0000 206.4000 13.03091871    10
CTC2_L_00470119-02
1 83415U 26333VV  26070.40848380  .00000000  00000+0  00000-0 0  9997
2 83415 100.6000 283.2000 0000000   0.0000  26.4000 13.03091871    11
CTC2_L_00470120-01
1 83416U 22702HU  26070.40848380  .00000000  00000+0  00000-0 0  9994
2 83416 100.6000 285.6000 0000000   0.0000 211.2000 13.03091871    12
CTC2_L_00470120-02
1 83417U 26284TR  26070.40848380  .00000000  00000+0  00000-0 0  9994
2 83417 100.6000 285.6000 0000000   0.0000  31.2000 13.03091871    13
CTC2_L_00470121-01
1 83418U 23955JU  26070.40848380  .00000000  00000+0  00000-0 0  9997
2 83418 100.6000 288.0000 0000000   0.0000 216.0000 13.03091871    14
CTC2_L_00470121-02
1 83419U 22104KI  26070.40848380  .00000000  00000+0  00000-0 0  9993
2 83419 100.6000 288.0000 0000000   0.0000  36.0000 13.03091871    15
CTC2_L_00470122-01
1 83420U 24386PK  26070.40848380  .00000000  00000+0  00000-0 0  9999
2 83420 100.6000 290.4000 0000000   0.0000 220.8000 13.03091871    17
CTC2_L_00470122-02
1 83421U 24922H   26070.40848380  .00000000  00000+0  00000-0 0  9996
2 83421 100.6000 290.4000 0000000   0.0000  40.8000 13.03091871    18
CTC2_L_00470123-01
1 83422U 24287SK  26070.40848380  .00000000  00000+0  00000-0 0  9991
2 83422 100.6000 292.8000 0000000   0.0000 225.6000 13.03091871    18
CTC2_L_00470123-02
1 83423U 24530XS  26070.40848380  .00000000  00000+0  00000-0 0  9993
2 83423 100.6000 292.8000 0000000   0.0000  45.6000 13.03091871    19
CTC2_L_00470124-01
1 83424U 24969BX  26070.40848380  .00000000  00000+0  00000-0 0  9990
2 83424 100.6000 295.2000 0000000   0.0000 230.4000 13.03091871    11
CTC2_L_00470124-02
1 83425U 23224FV  26070.40848380  .00000000  00000+0  00000-0 0  9994
2 83425 100.6000 295.2000 0000000   0.0000  50.4000 13.03091871    12
